OBJECT_NAME,OBJECT_ID,EPOCH,MEAN_MOTION,ECCENTRICITY,INCLINATION,RA_OF_ASC_NODE,ARG_OF_PERICENTER,MEAN_ANOMALY,EPHEMERIS_TYPE,CLASSIFICATION_TYPE,NORAD_CAT_ID,ELEMENT_SET_NO,REV_AT_EPOCH,BSTAR,MEAN_MOTION_DOT,MEAN_MOTION_DDOT
STARLINK-31060,2024-011T,2024-02-07T14:00:01.000224,15.47197301,0.0001332,53.1602,217.6172,94.465,17.613,0,U,58782,999,497,-0.037987,-0.01746193,0
STARLINK-31047,2024-011U,2024-02-07T14:00:01.000224,15.38172098,0.0001042,53.1594,217.9186,120.6436,199.6771,0,U,58783,999,497,-0.064825,-0.02216829,0
STARLINK-31039,2024-011V,2024-02-07T11:33:50.245056,15.48073534,0.0004843,53.16,218.6336,157.2034,202.919,0,U,58784,999,502,-0.0068885,-0.00351539,0
STARLINK-31034,2024-011W,2024-02-07T14:00:01.000224,15.47320985,0.0001115,53.1595,217.1689,110.3447,219.9314,0,U,58785,999,497,-0.037733,-0.01742395,0
STARLINK-31024,2024-011X,2024-02-07T02:15:29.326752,15.48916867,0.0001423,53.16,220.4798,183.8836,176.2162,0,U,58786,999,496,-0.00053812,-0.00029852,0
STARLINK-31189,2024-012A,2024-02-07T14:00:01.000224,15.46097326,0.0001073,42.9996,136.3513,281.9087,265.0178,0,U,58787,999,482,-0.049013,-0.02169459,0
STARLINK-31185,2024-012B,2024-02-07T14:00:01.000224,15.46757778,0.0001351,42.9998,136.3462,279.1909,269.8361,0,U,58788,999,497,-0.047983,-0.02173113,0
STARLINK-31166,2024-012C,2024-02-07T14:00:01.000224,15.48907451,0.0001676,42.9996,136.3396,254.5147,297.1566,0,U,58789,999,482,-1.3962e-05,-1.107e-05,0
STARLINK-31187,2024-012D,2024-02-07T14:00:01.000224,15.48070768,0.0001383,42.9998,136.3385,293.1068,259.129,0,U,58790,999,497,-0.045743,-0.02169971,0
STARLINK-31162,2024-012E,2024-02-07T14:00:01.000224,15.43421305,0.000131,42.9996,136.4062,286.4197,236.9331,0,U,58791,999,497,-0.053733,-0.02168893,0
STARLINK-31194,2024-012F,2024-02-07T14:00:01.000224,15.51670418,0.0001109,42.9999,135.572,300.0021,199.593,0,U,58792,999,497,-0.050362,-0.02697033,0
STARLINK-31184,2024-012G,2024-02-07T14:00:01.000224,15.49250229,7.25e-05,42.9998,136.3313,279.9897,274.9817,0,U,58793,999,488,-0.018066,-0.00928726,0
STARLINK-31192,2024-012H,2024-02-07T14:00:01.000224,15.48900984,0.0001751,42.9997,136.3296,269.7319,286.1598,0,U,58794,999,482,0.00010956,5.726e-05,0
STARLINK-31161,2024-012J,2024-02-07T14:00:01.000224,15.489073,0.0001635,42.9997,136.3271,273.6792,283.0473,0,U,58795,999,497,5.0395e-05,2.453e-05,0
STARLINK-31195,2024-012K,2024-02-07T14:00:01.000224,15.48901884,0.0001299,42.9996,136.3249,289.6541,267.9254,0,U,58796,999,497,-1.4049e-05,-1.111e-05,0
STARLINK-31193,2024-012L,2024-02-07T14:00:01.000224,15.4890214,0.0001831,42.9997,136.3228,282.4378,275.9776,0,U,58797,999,497,9.3762e-05,4.852e-05,0
STARLINK-31168,2024-012M,2024-02-07T14:00:01.000224,15.4891313,0.0001589,42.9996,136.3201,282.8316,276.4233,0,U,58798,999,497,-0.00026233,-0.00014816,0
STARLINK-31154,2024-012N,2024-02-07T14:00:01.000224,15.48904276,0.0001921,42.9997,136.2961,265.1134,303.4155,0,U,58799,999,487,-0.00019328,-0.00011006,0
STARLINK-31191,2024-012P,2024-02-07T14:00:01.000224,15.48883909,0.0001293,42.9996,136.3178,280.5308,279.5725,0,U,58800,999,482,0.00061529,0.00033807,0
STARLINK-31170,2024-012Q,2024-02-07T14:00:01.000224,15.48880743,0.0001409,42.9996,136.3156,281.1723,279.7731,0,U,58801,999,497,0.00087904,0.00048529,0
STARLINK-31173,2024-012R,2024-02-07T13:54:16.994304,16.03035313,0.0002565,42.9982,132.271,311.641,48.4249,0,U,58802,999,496,0.00044526,0.00281389,4.2551e-05
STARLINK-31141,2024-012S,2024-02-07T14:00:01.000224,15.48897103,0.0001411,42.9996,136.3089,286.6192,276.8561,0,U,58803,999,497,5.0362e-05,2.45e-05,0
STARLINK-31188,2024-012T,2024-02-07T14:00:01.000224,15.48923359,0.0001398,42.9998,136.3112,282.8532,279.7663,0,U,58804,999,497,-0.00053118,-0.00029611,0
STARLINK-31105,2024-012U,2024-02-07T14:00:01.000224,15.488884,0.0001946,42.9998,136.307,256.6365,307.6851,0,U,58805,999,482,0.00030355,0.00016474,0
STARLINK-31138,2024-012V,2024-02-07T14:00:01.000224,15.48892366,0.000144,42.9996,136.3054,273.5891,291.5687,0,U,58806,999,497,0.00030046,0.00016305,0
STARLINK-31163,2024-012W,2024-02-07T14:00:01.000224,15.48893118,0.0001282,42.9998,136.3027,275.3816,290.6238,0,U,58807,999,497,0.00031818,0.00017289,0
STARLINK-31174,2024-012X,2024-02-07T14:00:01.000224,15.48899618,0.0001953,42.9998,136.3,289.9769,276.8664,0,U,58808,999,497,0.00016985,9.065e-05,0
STARLINK-31169,2024-012Y,2024-02-07T14:00:01.000224,15.48890477,0.0001527,42.9996,136.2985,273.8367,293.8455,0,U,58809,999,497,0.00060147,0.00033045,0
NANOFF A,2023-185T,2024-02-06T19:04:53.167584,15.01917793,0.0012807,97.6379,106.5711,23.0754,117.4059,0,U,58810,999,326,0.00027746,3.574e-05,0
TIANZHOU-7,2024-013A,2024-02-07T09:51:13.964256,15.63180469,0.0008189,41.4676,162.1769,318.9777,41.0446,0,U,58811,999,15862,0.00020452,0.00018967,0
